RADCAL                  
1 22698U 93041A   13054.47543368 -.00000460  00000-0 -20182-3 0  4596
2 22698  89.5421 317.0677 0087178 237.1959 122.0786 14.23012016 20857
STRV 1A                 
1 23125U 94034B   13053.17358453  .00004055  00000-0  78198-3 0  1308
2 23125   7.2844  57.4072 6767849 327.3302   4.7412  2.95558368178502
STRV 1B                 
1 23126U 94034C   13049.85043964  .00003723  00000-0  70772-3 0  1364
2 23126   7.4659 344.1046 6698429 115.0498  20.3585  3.05166316181544
REX 2                   
1 23814U 96014A   13054.16787213  .00000102  00000-0  39483-4 0  7921
2 23814  90.1416 295.6784 0021193 220.5063 306.7525 14.24089919881222
COSMOS 2346             
1 24953U 97052A   13054.06611160 -.00000006  00000-0 -20459-4 0  6821
2 24953  82.9236  27.5591 0038482 308.6191 120.5049 13.79490024776311
ARGOS                   
1 25634U 99008A   13053.79226678  .00000025  00000-0  33415-4 0  8137
2 25634  98.8209 120.1037 0010962  63.3831  43.5031 14.19058676725012
HELIOS 1B               
1 25977U 99064A   13053.80282679  .00000514  00000-0  76959-4 0  8766
2 25977  98.2200 117.0107 0000999  40.0520  75.4399 14.79001039710850
MTI                     
1 26102U 00014A   13054.70294196  .00004323  00000-0  21141-3 0  7618
2 26102  97.3869 185.1767 0017895 112.5442 355.0943 15.18597234713262
STRV 1C                 
1 26610U 00072C   13049.33787440 -.00000342  00000-0  10000-3 0  4659
2 26610   6.0529 196.4992 7340904 226.4856  42.6308  2.03471390 91157
MIDSTAR-1               
1 30773U 07006B   13054.33412999  .00002610  00000-0  10066-3 0  7056
2 30773  46.0759   1.9409 0008255 289.5397  70.4612 15.29460226332464
CFESAT                  
1 30777U 07006F   13054.51422648  .00003099  00000-0  19434-3 0  5713
2 30777  35.4294 189.8217 0003391   5.9756  61.7605 15.09050328328110
NFIRE                   
1 31140U 07014A   13054.05811493  .00008779  00000-0  17375-3 0   375
2 31140  48.2188 230.5996 0007533 272.4449 184.5823 15.47744667331320
SPIRALE A               
1 33751U 09008C   13054.01054124  .00156031  72680-6  21574-2 0  1422
2 33751   2.0989 277.4407 5991654 211.8718  90.1468  4.15416867 39335
SPIRALE B               
1 33752U 09008D   13054.19026981  .00013282  00000-0  22824-2 0    38
2 33752   2.0505  41.3592 7164623 311.6591   6.1150  2.43998818 34117
